{
  "type": "FeatureCollection",
  "features": [
    {
      "type": "Feature",
      "properties": {
        "norad_id": 35052,
        "name": "IRIDIUM 33 DEB",
        "group": "iridium-33-debris",
        "lat": -69.44063396328725,
        "lon": 14.847131315157126,
        "alt_km": 780.571895497088,
        "timestamp": "2025-12-02T21:34:01.656163+00:00",
        "meta_object_name": "IRIDIUM 33 DEB",
        "meta_object_id": "1997-051NY",
        "meta_epoch": "2025-12-02T10:12:18.685728",
        "meta_mean_motion": 14.38472641,
        "meta_eccentricity": 0.0013531,
        "meta_inclination": 86.332,
        "meta_ra_of_asc_node": 24.8977,
        "meta_arg_of_pericenter": 113.8149,
        "meta_mean_anomaly": 246.4469,
        "meta_ephemeris_type": 0,
        "meta_classification_type": "U",
        "meta_norad_cat_id": 35052,
        "meta_element_set_no": 999,
        "meta_rev_at_epoch": 87127,
        "meta_bstar": 0.00026027,
        "meta_mean_motion_dot": 8.15e-06,
        "meta_mean_motion_ddot": 0,
        "tle_line1": "1 35052U 97051NY  25336.42521627  .00000815  00000+0  26027-3 0  9998",
        "tle_line2": "2 35052  86.3320  24.8977 0013531 113.8149 246.4469 14.38472641871276"
      },
      "geometry": {
        "type": "Point",
        "coordinates": [
          14.847131315157126,
          -69.44063396328725
        ]
      }
    },
    {
      "type": "Feature",
      "properties": {
        "norad_id": 35080,
        "name": "IRIDIUM 33 DEB",
        "group": "iridium-33-debris",
        "lat": -76.84164436357484,
        "lon": -106.43669944128902,
        "alt_km": 592.2169246591666,
        "timestamp": "2025-12-02T21:34:01.656181+00:00",
        "meta_object_name": "IRIDIUM 33 DEB",
        "meta_object_id": "1997-051PF",
        "meta_epoch": "2025-12-01T23:22:16.261248",
        "meta_mean_motion": 14.83809313,
        "meta_eccentricity": 0.00642465,
        "meta_inclination": 86.2057,
        "meta_ra_of_asc_node": 57.5123,
        "meta_arg_of_pericenter": 215.9752,
        "meta_mean_anomaly": 143.7139,
        "meta_ephemeris_type": 0,
        "meta_classification_type": "U",
        "meta_norad_cat_id": 35080,
        "meta_element_set_no": 999,
        "meta_rev_at_epoch": 69528,
        "meta_bstar": 0.0089496131,
        "meta_mean_motion_dot": 0.00077648,
        "meta_mean_motion_ddot": 0,
        "tle_line1": "1 35080U 97051PF  25335.97379932  .00077648  00000+0  89496-2 0  9994",
        "tle_line2": "2 35080  86.2057  57.5123 0064246 215.9752 143.7139 14.83809313695280"
      },
      "geometry": {
        "type": "Point",
        "coordinates": [
          -106.43669944128902,
          -76.84164436357484
        ]
      }
    },
    {
      "type": "Feature",
      "properties": {
        "norad_id": 35297,
        "name": "IRIDIUM 33 DEB",
        "group": "iridium-33-debris",
        "lat": -37.54881905656823,
        "lon": 64.174178652745,
        "alt_km": 758.444990014309,
        "timestamp": "2025-12-02T21:34:01.656199+00:00",
        "meta_object_name": "IRIDIUM 33 DEB",
        "meta_object_id": "1997-051PM",
        "meta_epoch": "2025-11-28T13:02:32.385696",
        "meta_mean_motion": 14.4505178,
        "meta_eccentricity": 0.00162447,
        "meta_inclination": 86.3859,
        "meta_ra_of_asc_node": 68.817,
        "meta_arg_of_pericenter": 185.2069,
        "meta_mean_anomaly": 174.8967,
        "meta_ephemeris_type": 0,
        "meta_classification_type": "U",
        "meta_norad_cat_id": 35297,
        "meta_element_set_no": 999,
        "meta_rev_at_epoch": 70221,
        "meta_bstar": 0.00072341306,
        "meta_mean_motion_dot": 2.549e-05,
        "meta_mean_motion_ddot": 0,
        "tle_line1": "1 35297U 97051PM  25332.54343039  .00002549  00000+0  72341-3 0  9993",
        "tle_line2": "2 35297  86.3859  68.8170 0016244 185.2069 174.8967 14.45051780702214"
      },
      "geometry": {
        "type": "Point",
        "coordinates": [
          64.174178652745,
          -37.54881905656823
        ]
      }
    },
    {
      "type": "Feature",
      "properties": {
        "norad_id": 35299,
        "name": "IRIDIUM 33 DEB",
        "group": "iridium-33-debris",
        "lat": 46.41465462725749,
        "lon": 41.37898285355535,
        "alt_km": 749.5697786549035,
        "timestamp": "2025-12-02T21:34:01.656209+00:00",
        "meta_object_name": "IRIDIUM 33 DEB",
        "meta_object_id": "1997-051PP",
        "meta_epoch": "2025-12-02T11:38:41.154720",
        "meta_mean_motion": 14.40775501,
        "meta_eccentricity": 0.0058581,
        "meta_inclination": 86.2895,
        "meta_ra_of_asc_node": 37.6494,
        "meta_arg_of_pericenter": 135.0483,
        "meta_mean_anomaly": 289.2152,
        "meta_ephemeris_type": 0,
        "meta_classification_type": "U",
        "meta_norad_cat_id": 35299,
        "meta_element_set_no": 999,
        "meta_rev_at_epoch": 86183,
        "meta_bstar": 0.001068,
        "meta_mean_motion_dot": 3.506e-05,
        "meta_mean_motion_ddot": 0,
        "tle_line1": "1 35299U 97051PP  25336.48519855  .00003506  00000+0  10680-2 0  9994",
        "tle_line2": "2 35299  86.2895  37.6494 0058581 135.0483 289.2152 14.40775501861831"
      },
      "geometry": {
        "type": "Point",
        "coordinates": [
          41.37898285355535,
          46.41465462725749
        ]
      }
    },
    {
      "type": "Feature",
      "properties": {
        "norad_id": 35480,
        "name": "IRIDIUM 33 DEB",
        "group": "iridium-33-debris",
        "lat": -12.576143620938328,
        "lon": -150.00782511132135,
        "alt_km": 725.5260191690259,
        "timestamp": "2025-12-02T21:34:01.656219+00:00",
        "meta_object_name": "IRIDIUM 33 DEB",
        "meta_object_id": "1997-051QA",
        "meta_epoch": "2025-12-01T21:29:27.496896",
        "meta_mean_motion": 14.49686619,
        "meta_eccentricity": 0.00155495,
        "meta_inclination": 86.3575,
        "meta_ra_of_asc_node": 29.6125,
        "meta_arg_of_pericenter": 136.7189,
        "meta_mean_anomaly": 223.524,
        "meta_ephemeris_type": 0,
        "meta_classification_type": "U",
        "meta_norad_cat_id": 35480,
        "meta_element_set_no": 999,
        "meta_rev_at_epoch": 86874,
        "meta_bstar": 0.000651702,
        "meta_mean_motion_dot": 2.53e-05,
        "meta_mean_motion_ddot": 0,
        "tle_line1": "1 35480U 97051QA  25335.89545714  .00002530  00000+0  65170-3 0  9994",
        "tle_line2": "2 35480  86.3575  29.6125 0015549 136.7189 223.5240 14.49686619868745"
      },
      "geometry": {
        "type": "Point",
        "coordinates": [
          -150.00782511132135,
          -12.576143620938328
        ]
      }
    },
    {
      "type": "Feature",
      "properties": {
        "norad_id": 35484,
        "name": "IRIDIUM 33 DEB",
        "group": "iridium-33-debris",
        "lat": 82.48559880373747,
        "lon": 26.178279164736853,
        "alt_km": 562.8945778972557,
        "timestamp": "2025-12-02T21:34:01.656230+00:00",
        "meta_object_name": "IRIDIUM 33 DEB",
        "meta_object_id": "1997-051QE",
        "meta_epoch": "2025-12-01T19:32:14.692416",
        "meta_mean_motion": 14.97587734,
        "meta_eccentricity": 0.00218288,
        "meta_inclination": 86.3628,
        "meta_ra_of_asc_node": 357.8533,
        "meta_arg_of_pericenter": 162.6444,
        "meta_mean_anomaly": 197.5538,
        "meta_ephemeris_type": 0,
        "meta_classification_type": "U",
        "meta_norad_cat_id": 35484,
        "meta_element_set_no": 999,
        "meta_rev_at_epoch": 61852,
        "meta_bstar": 0.0025030806,
        "meta_mean_motion_dot": 0.00029486,
        "meta_mean_motion_ddot": 0,
        "tle_line1": "1 35484U 97051QE  25335.81405894  .00029486  00000+0  25031-2 0  9994",
        "tle_line2": "2 35484  86.3628 357.8533 0021828 162.6444 197.5538 14.97587734618526"
      },
      "geometry": {
        "type": "Point",
        "coordinates": [
          26.178279164736853,
          82.48559880373747
        ]
      }
    },
    {
      "type": "Feature",
      "properties": {
        "norad_id": 35488,
        "name": "IRIDIUM 33 DEB",
        "group": "iridium-33-debris",
        "lat": 14.11637186812348,
        "lon": -53.65937151201265,
        "alt_km": 611.0204873046805,
        "timestamp": "2025-12-02T21:34:01.656240+00:00",
        "meta_object_name": "IRIDIUM 33 DEB",
        "meta_object_id": "1997-051QJ",
        "meta_epoch": "2025-12-02T08:32:43.262592",
        "meta_mean_motion": 14.82644262,
        "meta_eccentricity": 0.0030843,
        "meta_inclination": 86.3229,
        "meta_ra_of_asc_node": 305.664,
        "meta_arg_of_pericenter": 75.594,
        "meta_mean_anomaly": 284.8703,
        "meta_ephemeris_type": 0,
        "meta_classification_type": "U",
        "meta_norad_cat_id": 35488,
        "meta_element_set_no": 999,
        "meta_rev_at_epoch": 88112,
        "meta_bstar": 0.0015863,
        "meta_mean_motion_dot": 0.00012921,
        "meta_mean_motion_ddot": 0,
        "tle_line1": "1 35488U 97051QJ  25336.35605628  .00012921  00000+0  15863-2 0  9993",
        "tle_line2": "2 35488  86.3229 305.6640 0030843  75.5940 284.8703 14.82644262881123"
      },
      "geometry": {
        "type": "Point",
        "coordinates": [
          -53.65937151201265,
          14.11637186812348
        ]
      }
    }
  ]
}